[{"OBJECT_NAME":"FENGYUN 1C DEB","OBJECT_ID":"1999-025AGE","EPOCH":"2026-03-04T00:56:23.068896","MEAN_MOTION":14.17608481,"ECCENTRICITY":0.00631404,"INCLINATION":98.6705,"RA_OF_ASC_NODE":93.6422,"ARG_OF_PERICENTER":253.2569,"MEAN_ANOMALY":170.1882,"EPHEMERIS_TYPE":0,"CLASSIFICATION_TYPE":"U","NORAD_CAT_ID":30467,"ELEMENT_SET_NO":999,"REV_AT_EPOCH":98329,"BSTAR":0.00098360501,"MEAN_MOTION_DOT":1.996e-5,"MEAN_MOTION_DDOT":0},{"OBJECT_NAME":"FENGYUN 1C DEB","OBJECT_ID":"1999-025AGF","EPOCH":"2026-03-04T16:59:14.090208","MEAN_MOTION":14.21369648,"ECCENTRICITY":0.007471,"INCLINATION":98.9135,"RA_OF_ASC_NODE":150.9859,"ARG_OF_PERICENTER":163.9165,"MEAN_ANOMALY":357.9304,"EPHEMERIS_TYPE":0,"CLASSIFICATION_TYPE":"U","NORAD_CAT_ID":30468,"ELEMENT_SET_NO":999,"REV_AT_EPOCH":97974,"BSTAR":0.0023003,"MEAN_MOTION_DOT":5.124e-5,"MEAN_MOTION_DDOT":0},{"OBJECT_NAME":"FENGYUN 1C DEB","OBJECT_ID":"1999-025AGG","EPOCH":"2026-03-04T12:55:03.324288","MEAN_MOTION":13.96776645,"ECCENTRICITY":0.01589429,"INCLINATION":98.4766,"RA_OF_ASC_NODE":272.9042,"ARG_OF_PERICENTER":301.666,"MEAN_ANOMALY":85.5481,"EPHEMERIS_TYPE":0,"CLASSIFICATION_TYPE":"U","NORAD_CAT_ID":30469,"ELEMENT_SET_NO":999,"REV_AT_EPOCH":96848,"BSTAR":0.0011889808,"MEAN_MOTION_DOT":1.797e-5,"MEAN_MOTION_DDOT":0},{"OBJECT_NAME":"FENGYUN 1C DEB","OBJECT_ID":"1999-025AGJ","EPOCH":"2026-03-03T18:08:26.631456","MEAN_MOTION":14.14196605,"ECCENTRICITY":0.00799818,"INCLINATION":99.0474,"RA_OF_ASC_NODE":156.3761,"ARG_OF_PERICENTER":27.4405,"MEAN_ANOMALY":123.4043,"EPHEMERIS_TYPE":0,"CLASSIFICATION_TYPE":"U","NORAD_CAT_ID":30471,"ELEMENT_SET_NO":999,"REV_AT_EPOCH":97587,"BSTAR":0.0013256732,"MEAN_MOTION_DOT":2.561e-5,"MEAN_MOTION_DDOT":0},{"OBJECT_NAME":"FENGYUN 1C DEB","OBJECT_ID":"1999-025AGK","EPOCH":"2026-03-04T06:18:15.362784","MEAN_MOTION":14.55714834,"ECCENTRICITY":0.0039118,"INCLINATION":98.648,"RA_OF_ASC_NODE":172.1631,"ARG_OF_PERICENTER":188.6492,"MEAN_ANOMALY":200.5916,"EPHEMERIS_TYPE":0,"CLASSIFICATION_TYPE":"U","NORAD_CAT_ID":30472,"ELEMENT_SET_NO":999,"REV_AT_EPOCH":99226,"BSTAR":0.0042560176,"MEAN_MOTION_DOT":0.00018803,"MEAN_MOTION_DDOT":0},{"OBJECT_NAME":"FENGYUN 1C DEB","OBJECT_ID":"1999-025AGM","EPOCH":"2026-03-04T17:55:24.237120","MEAN_MOTION":14.39069091,"ECCENTRICITY":0.0026867,"INCLINATION":98.9211,"RA_OF_ASC_NODE":150.852,"ARG_OF_PERICENTER":125.4967,"MEAN_ANOMALY":28.5047,"EPHEMERIS_TYPE":0,"CLASSIFICATION_TYPE":"U","NORAD_CAT_ID":30474,"ELEMENT_SET_NO":999,"REV_AT_EPOCH":98572,"BSTAR":0.0027845,"MEAN_MOTION_DOT":8.605e-5,"MEAN_MOTION_DDOT":0},{"OBJECT_NAME":"FENGYUN 1C DEB","OBJECT_ID":"1999-025AGN","EPOCH":"2026-03-04T18:04:57.591840","MEAN_MOTION":14.15948898,"ECCENTRICITY":0.0042821,"INCLINATION":98.7803,"RA_OF_ASC_NODE":109.1199,"ARG_OF_PERICENTER":60.5175,"MEAN_ANOMALY":5.6284,"EPHEMERIS_TYPE":0,"CLASSIFICATION_TYPE":"U","NORAD_CAT_ID":30475,"ELEMENT_SET_NO":999,"REV_AT_EPOCH":98112,"BSTAR":0.00081162,"MEAN_MOTION_DOT":1.57e-5,"MEAN_MOTION_DDOT":0},{"OBJECT_NAME":"FENGYUN 1C DEB","OBJECT_ID":"1999-025AGP","EPOCH":"2026-03-04T01:27:28.463904","MEAN_MOTION":14.21467501,"ECCENTRICITY":0.00458436,"INCLINATION":99.1161,"RA_OF_ASC_NODE":107.8976,"ARG_OF_PERICENTER":70.4405,"MEAN_ANOMALY":320.0217,"EPHEMERIS_TYPE":0,"CLASSIFICATION_TYPE":"U","NORAD_CAT_ID":30476,"ELEMENT_SET_NO":999,"REV_AT_EPOCH":98000,"BSTAR":0.0015841168,"MEAN_MOTION_DOT":3.456e-5,"MEAN_MOTION_DDOT":0},{"OBJECT_NAME":"FENGYUN 1C DEB","OBJECT_ID":"1999-025AGQ","EPOCH":"2026-03-04T16:28:06.854016","MEAN_MOTION":13.24061993,"ECCENTRICITY":0.0431099,"INCLINATION":99.4181,"RA_OF_ASC_NODE":144.1294,"ARG_OF_PERICENTER":81.4921,"MEAN_ANOMALY":66.9479,"EPHEMERIS_TYPE":0,"CLASSIFICATION_TYPE":"U","NORAD_CAT_ID":30477,"ELEMENT_SET_NO":999,"REV_AT_EPOCH":91803,"BSTAR":0.0011639,"MEAN_MOTION_DOT":7.81e-6,"MEAN_MOTION_DDOT":0},{"OBJECT_NAME":"FENGYUN 1C DEB","OBJECT_ID":"1999-025AGS","EPOCH":"2026-03-04T17:41:01.768128","MEAN_MOTION":14.33771778,"ECCENTRICITY":0.0164044,"INCLINATION":98.2217,"RA_OF_ASC_NODE":79.5314,"ARG_OF_PERICENTER":260.8203,"MEAN_ANOMALY":158.0597,"EPHEMERIS_TYPE":0,"CLASSIFICATION_TYPE":"U","NORAD_CAT_ID":30480,"ELEMENT_SET_NO":999,"REV_AT_EPOCH":99843,"BSTAR":0.0003178,"MEAN_MOTION_DOT":9.8e-6,"MEAN_MOTION_DDOT":0},{"OBJECT_NAME":"FENGYUN 1C DEB","OBJECT_ID":"1999-025AGT","EPOCH":"2026-03-04T01:16:02.371008","MEAN_MOTION":14.3940118,"ECCENTRICITY":0.02233305,"INCLINATION":98.3325,"RA_OF_ASC_NODE":83.1625,"ARG_OF_PERICENTER":15.8144,"MEAN_ANOMALY":44.6548,"EPHEMERIS_TYPE":0,"CLASSIFICATION_TYPE":"U","NORAD_CAT_ID":30481,"ELEMENT_SET_NO":999,"REV_AT_EPOCH":99653,"BSTAR":0.00089334116,"MEAN_MOTION_DOT":3.676e-5,"MEAN_MOTION_DDOT":0},{"OBJECT_NAME":"FENGYUN 1C DEB","OBJECT_ID":"1999-025AHB","EPOCH":"2026-03-04T17:09:02.831040","MEAN_MOTION":14.15925462,"ECCENTRICITY":0.0140244,"INCLINATION":98.4664,"RA_OF_ASC_NODE":79.5775,"ARG_OF_PERICENTER":29.2462,"MEAN_ANOMALY":34.428,"EPHEMERIS_TYPE":0,"CLASSIFICATION_TYPE":"U","NORAD_CAT_ID":30489,"ELEMENT_SET_NO":999,"REV_AT_EPOCH":98547,"BSTAR":0.00040113,"MEAN_MOTION_DOT":8.28e-6,"MEAN_MOTION_DDOT":0},{"OBJECT_NAME":"FENGYUN 1C DEB","OBJECT_ID":"1999-025AHC","EPOCH":"2026-03-04T09:10:36.780096","MEAN_MOTION":15.88735165,"ECCENTRICITY":0.00248967,"INCLINATION":98.3294,"RA_OF_ASC_NODE":212.0834,"ARG_OF_PERICENTER":267.1759,"MEAN_ANOMALY":92.6661,"EPHEMERIS_TYPE":0,"CLASSIFICATION_TYPE":"U","NORAD_CAT_ID":30490,"ELEMENT_SET_NO":999,"REV_AT_EPOCH":748,"BSTAR":0.0084056537,"MEAN_MOTION_DOT":0.02312507,"MEAN_MOTION_DDOT":0.0031733759},{"OBJECT_NAME":"FENGYUN 1C DEB","OBJECT_ID":"1999-025AHE","EPOCH":"2026-03-04T10:28:16.113504","MEAN_MOTION":14.54267103,"ECCENTRICITY":0.00995192,"INCLINATION":102.3229,"RA_OF_ASC_NODE":123.6246,"ARG_OF_PERICENTER":205.4577,"MEAN_ANOMALY":154.1684,"EPHEMERIS_TYPE":0,"CLASSIFICATION_TYPE":"U","NORAD_CAT_ID":30492,"ELEMENT_SET_NO":999,"REV_AT_EPOCH":98081,"BSTAR":0.0051412231,"MEAN_MOTION_DOT":0.00023282,"MEAN_MOTION_DDOT":0},{"OBJECT_NAME":"FENGYUN 1C DEB","OBJECT_ID":"1999-025AHF","EPOCH":"2026-03-04T12:16:48.701856","MEAN_MOTION":13.93520174,"ECCENTRICITY":0.01798384,"INCLINATION":98.5754,"RA_OF_ASC_NODE":252.9337,"ARG_OF_PERICENTER":350.0324,"MEAN_ANOMALY":33.7385,"EPHEMERIS_TYPE":0,"CLASSIFICATION_TYPE":"U","NORAD_CAT_ID":30493,"ELEMENT_SET_NO":999,"REV_AT_EPOCH":96234,"BSTAR":0.0017538504,"MEAN_MOTION_DOT":2.588e-5,"MEAN_MOTION_DDOT":0},{"OBJECT_NAME":"FENGYUN 1C DEB","OBJECT_ID":"1999-025AHG","EPOCH":"2026-03-04T12:58:22.248192","MEAN_MOTION":13.79633855,"ECCENTRICITY":0.0183522,"INCLINATION":99.2717,"RA_OF_ASC_NODE":102.3021,"ARG_OF_PERICENTER":6.045,"MEAN_ANOMALY":354.2858,"EPHEMERIS_TYPE":0,"CLASSIFICATION_TYPE":"U","NORAD_CAT_ID":30494,"ELEMENT_SET_NO":999,"REV_AT_EPOCH":95614,"BSTAR":0.0013824,"MEAN_MOTION_DOT":1.575e-5,"MEAN_MOTION_DDOT":0},{"OBJECT_NAME":"FENGYUN 1C DEB","OBJECT_ID":"1999-025AHH","EPOCH":"2026-03-04T17:21:03.023424","MEAN_MOTION":12.94741222,"ECCENTRICITY":0.0593931,"INCLINATION":102.2554,"RA_OF_ASC_NODE":167.3918,"ARG_OF_PERICENTER":99.2386,"MEAN_ANOMALY":267.6345,"EPHEMERIS_TYPE":0,"CLASSIFICATION_TYPE":"U","NORAD_CAT_ID":30495,"ELEMENT_SET_NO":999,"REV_AT_EPOCH":89734,"BSTAR":0.0024989,"MEAN_MOTION_DOT":1.512e-5,"MEAN_MOTION_DDOT":0},{"OBJECT_NAME":"FENGYUN 1C DEB","OBJECT_ID":"1999-025AHJ","EPOCH":"2026-03-04T04:49:31.637568","MEAN_MOTION":14.95945322,"ECCENTRICITY":0.01246319,"INCLINATION":98.785,"RA_OF_ASC_NODE":343.7816,"ARG_OF_PERICENTER":192.6399,"MEAN_ANOMALY":167.1686,"EPHEMERIS_TYPE":0,"CLASSIFICATION_TYPE":"U","NORAD_CAT_ID":30496,"ELEMENT_SET_NO":999,"REV_AT_EPOCH":2361,"BSTAR":0.00083224688,"MEAN_MOTION_DOT":0.00010837,"MEAN_MOTION_DDOT":0},{"OBJECT_NAME":"FENGYUN 1C DEB","OBJECT_ID":"1999-025AHL","EPOCH":"2026-03-04T15:34:48.230112","MEAN_MOTION":14.06598121,"ECCENTRICITY":0.0099627,"INCLINATION":99.2303,"RA_OF_ASC_NODE":121.4257,"ARG_OF_PERICENTER":287.4744,"MEAN_ANOMALY":224.9368,"EPHEMERIS_TYPE":0,"CLASSIFICATION_TYPE":"U","NORAD_CAT_ID":30498,"ELEMENT_SET_NO":999,"REV_AT_EPOCH":96920,"BSTAR":0.0016397,"MEAN_MOTION_DOT":2.796e-5,"MEAN_MOTION_DDOT":0},{"OBJECT_NAME":"FENGYUN 1C DEB","OBJECT_ID":"1999-025AHN","EPOCH":"2026-03-04T13:00:10.178208","MEAN_MOTION":14.26219943,"ECCENTRICITY":0.0064306,"INCLINATION":99.0666,"RA_OF_ASC_NODE":162.849,"ARG_OF_PERICENTER":236.9092,"MEAN_ANOMALY":245.8092,"EPHEMERIS_TYPE":0,"CLASSIFICATION_TYPE":"U","NORAD_CAT_ID":30500,"ELEMENT_SET_NO":999,"REV_AT_EPOCH":97847,"BSTAR":0.0034259,"MEAN_MOTION_DOT":8.352e-5,"MEAN_MOTION_DDOT":0},{"OBJECT_NAME":"FENGYUN 1C DEB","OBJECT_ID":"1999-025AHP","EPOCH":"2026-03-02T23:59:46.849056","MEAN_MOTION":14.25990175,"ECCENTRICITY":0.00409768,"INCLINATION":99.0895,"RA_OF_ASC_NODE":60.6977,"ARG_OF_PERICENTER":333.932,"MEAN_ANOMALY":94.3591,"EPHEMERIS_TYPE":0,"CLASSIFICATION_TYPE":"U","NORAD_CAT_ID":30501,"ELEMENT_SET_NO":999,"REV_AT_EPOCH":98063,"BSTAR":0.0017285112,"MEAN_MOTION_DOT":4.115e-5,"MEAN_MOTION_DDOT":0},{"OBJECT_NAME":"FENGYUN 1C DEB","OBJECT_ID":"1999-025AHR","EPOCH":"2026-03-04T01:51:17.378208","MEAN_MOTION":14.16227152,"ECCENTRICITY":0.0009595,"INCLINATION":99.2021,"RA_OF_ASC_NODE":274.3037,"ARG_OF_PERICENTER":39.7283,"MEAN_ANOMALY":116.5776,"EPHEMERIS_TYPE":0,"CLASSIFICATION_TYPE":"U","NORAD_CAT_ID":30503,"ELEMENT_SET_NO":999,"REV_AT_EPOCH":98497,"BSTAR":0.0003223873,"MEAN_MOTION_DOT":5.91e-6,"MEAN_MOTION_DDOT":0},{"OBJECT_NAME":"FENGYUN 1C DEB","OBJECT_ID":"1999-025AHS","EPOCH":"2026-03-04T19:39:21.148128","MEAN_MOTION":14.20762732,"ECCENTRICITY":0.0110918,"INCLINATION":99.0126,"RA_OF_ASC_NODE":116.6658,"ARG_OF_PERICENTER":343.1331,"MEAN_ANOMALY":79.2624,"EPHEMERIS_TYPE":0,"CLASSIFICATION_TYPE":"U","NORAD_CAT_ID":30504,"ELEMENT_SET_NO":999,"REV_AT_EPOCH":98559,"BSTAR":0.00054014,"MEAN_MOTION_DOT":1.193e-5,"MEAN_MOTION_DDOT":0}]
